{
  "norad_id": 64527,
  "name": "COSMOS 2590",
  "history": [
    {
      "epoch": "2026-03-28T13:46:18.636384Z",
      "apogee_km": 51215.43588125393,
      "perigee_km": 20365.438373645666,
      "latitude_deg": 0.11809410015913073,
      "longitude_deg": 144.61495629962755,
      "height_km": 27576.6846713023,
      "semi_major_axis_km": 42168.5741274498,
      "eccentricity": 0.3657937,
      "inclination_deg": 0.1568,
      "raan_deg": 45.376,
      "arg_perigee_deg": 53.9716,
      "mean_anomaly_deg": 40.0796,
      "mean_motion_rev_day": 1.00258081
    }
  ]
}